{
  "links" : {
    "next" : "https://api.nasa.gov/neo/rest/v1/feed?start_date=2004-08-23&end_date=2004-08-23&detailed=true&api_key=t0TVs3DtDT2H8Oy2Zy8m2eVrNsAVKAexjcZXUckd",
    "prev" : "https://api.nasa.gov/neo/rest/v1/feed?start_date=2004-08-21&end_date=2004-08-21&detailed=true&api_key=t0TVs3DtDT2H8Oy2Zy8m2eVrNsAVKAexjcZXUckd",
    "self" : "https://api.nasa.gov/neo/rest/v1/feed?start_date=2004-08-22&end_date=2004-08-22&detailed=true&api_key=t0TVs3DtDT2H8Oy2Zy8m2eVrNsAVKAexjcZXUckd"
  },
  "element_count" : 6,
  "near_earth_objects" : {
    "2004-08-22" : [ {
      "links" : {
        "self" : "https://api.nasa.gov/neo/rest/v1/neo/3143084?api_key=t0TVs3DtDT2H8Oy2Zy8m2eVrNsAVKAexjcZXUckd"
      },
      "neo_reference_id" : "3143084",
      "name" : "(2002 VX91)",
      "nasa_jpl_url" : "http://ssd.jpl.nasa.gov/sbdb.cgi?sstr=3143084",
      "absolute_magnitude_h" : 24.3,
      "estimated_diameter" : {
        "kilometers" : {
          "estimated_diameter_min" : 0.0366906138,
          "estimated_diameter_max" : 0.0820427065
        },
        "meters" : {
          "estimated_diameter_min" : 36.6906137531,
          "estimated_diameter_max" : 82.0427064882
        },
        "miles" : {
          "estimated_diameter_min" : 0.0227984834,
          "estimated_diameter_max" : 0.0509789586
        },
        "feet" : {
          "estimated_diameter_min" : 120.3760332259,
          "estimated_diameter_max" : 269.1689931548
        }
      },
      "is_potentially_hazardous_asteroid" : false,
      "close_approach_data" : [ {
        "close_approach_date" : "2004-08-22",
        "epoch_date_close_approach" : 1093158000000,
        "relative_velocity" : {
          "kilometers_per_second" : "6.4455149517",
          "kilometers_per_hour" : "23203.8538260269",
          "miles_per_hour" : "14417.9723953999"
        },
        "miss_distance" : {
          "astronomical" : "0.2077562952",
          "lunar" : "80.817199707",
          "kilometers" : "31079900",
          "miles" : "19312154"
        },
        "orbiting_body" : "Earth"
      } ],
      "orbital_data" : {
        "orbit_id" : "15",
        "orbit_determination_date" : "2017-04-06 09:14:37",
        "orbit_uncertainty" : "2",
        "minimum_orbit_intersection" : ".00180294",
        "jupiter_tisserand_invariant" : "6.139",
        "epoch_osculation" : "2458000.5",
        "eccentricity" : ".2012707478278015",
        "semi_major_axis" : ".9839990828843111",
        "inclination" : "2.341697091268065",
        "ascending_node_longitude" : "216.4257768385215",
        "orbital_period" : "356.5253930619381",
        "perihelion_distance" : ".785948851610315",
        "perihelion_argument" : "78.74582230726236",
        "aphelion_distance" : "1.182049314158307",
        "perihelion_time" : "2457851.646993451932",
        "mean_anomaly" : "150.303690564882",
        "mean_motion" : "1.009745748846165",
        "equinox" : "J2000"
      }
    }, {
      "links" : {
        "self" : "https://api.nasa.gov/neo/rest/v1/neo/3729233?api_key=t0TVs3DtDT2H8Oy2Zy8m2eVrNsAVKAexjcZXUckd"
      },
      "neo_reference_id" : "3729233",
      "name" : "(2015 TG24)",
      "nasa_jpl_url" : "http://ssd.jpl.nasa.gov/sbdb.cgi?sstr=3729233",
      "absolute_magnitude_h" : 26.7,
      "estimated_diameter" : {
        "kilometers" : {
          "estimated_diameter_min" : 0.0121494041,
          "estimated_diameter_max" : 0.0271668934
        },
        "meters" : {
          "estimated_diameter_min" : 12.14940408,
          "estimated_diameter_max" : 27.1668934089
        },
        "miles" : {
          "estimated_diameter_min" : 0.0075492874,
          "estimated_diameter_max" : 0.0168807197
        },
        "feet" : {
          "estimated_diameter_min" : 39.8602508817,
          "estimated_diameter_max" : 89.1302305717
        }
      },
      "is_potentially_hazardous_asteroid" : false,
      "close_approach_data" : [ {
        "close_approach_date" : "2004-08-22",
        "epoch_date_close_approach" : 1093158000000,
        "relative_velocity" : {
          "kilometers_per_second" : "10.5389954883",
          "kilometers_per_hour" : "37940.3837579938",
          "miles_per_hour" : "23574.679007849"
        },
        "miss_distance" : {
          "astronomical" : "0.0607470582",
          "lunar" : "23.6306056976",
          "kilometers" : "9087630",
          "miles" : "5646792"
        },
        "orbiting_body" : "Earth"
      } ],
      "orbital_data" : {
        "orbit_id" : "7",
        "orbit_determination_date" : "2017-04-06 08:31:32",
        "orbit_uncertainty" : "7",
        "minimum_orbit_intersection" : ".0033078",
        "jupiter_tisserand_invariant" : "7.649",
        "epoch_osculation" : "2458000.5",
        "eccentricity" : ".4434104953860149",
        "semi_major_axis" : ".7463846264615135",
        "inclination" : "3.986823210069767",
        "ascending_node_longitude" : "21.96439445291855",
        "orbital_period" : "235.5279516741896",
        "perihelion_distance" : ".415429849493708",
        "perihelion_argument" : "151.3159781134106",
        "aphelion_distance" : "1.077339403429319",
        "perihelion_time" : "2458096.414333115698",
        "mean_anomaly" : "213.3967638396641",
        "mean_motion" : "1.528481003808818",
        "equinox" : "J2000"
      }
    }, {
      "links" : {
        "self" : "https://api.nasa.gov/neo/rest/v1/neo/3758847?api_key=t0TVs3DtDT2H8Oy2Zy8m2eVrNsAVKAexjcZXUckd"
      },
      "neo_reference_id" : "3758847",
      "name" : "(2016 RZ)",
      "nasa_jpl_url" : "http://ssd.jpl.nasa.gov/sbdb.cgi?sstr=3758847",
      "absolute_magnitude_h" : 26.7,
      "estimated_diameter" : {
        "kilometers" : {
          "estimated_diameter_min" : 0.0121494041,
          "estimated_diameter_max" : 0.0271668934
        },
        "meters" : {
          "estimated_diameter_min" : 12.14940408,
          "estimated_diameter_max" : 27.1668934089
        },
        "miles" : {
          "estimated_diameter_min" : 0.0075492874,
          "estimated_diameter_max" : 0.0168807197
        },
        "feet" : {
          "estimated_diameter_min" : 39.8602508817,
          "estimated_diameter_max" : 89.1302305717
        }
      },
      "is_potentially_hazardous_asteroid" : false,
      "close_approach_data" : [ {
        "close_approach_date" : "2004-08-22",
        "epoch_date_close_approach" : 1093158000000,
        "relative_velocity" : {
          "kilometers_per_second" : "11.4154489067",
          "kilometers_per_hour" : "41095.6160641182",
          "miles_per_hour" : "25535.2176593961"
        },
        "miss_distance" : {
          "astronomical" : "0.2182266635",
          "lunar" : "84.8901672363",
          "kilometers" : "32646244",
          "miles" : "20285436"
        },
        "orbiting_body" : "Earth"
      } ],
      "orbital_data" : {
        "orbit_id" : "5",
        "orbit_determination_date" : "2017-04-06 08:24:13",
        "orbit_uncertainty" : "6",
        "minimum_orbit_intersection" : ".0241066",
        "jupiter_tisserand_invariant" : "6.601",
        "epoch_osculation" : "2458000.5",
        "eccentricity" : ".1862903563871123",
        "semi_major_axis" : ".8995641920628645",
        "inclination" : "2.020029609384056",
        "ascending_node_longitude" : "191.641356392069",
        "orbital_period" : "311.6353147187838",
        "perihelion_distance" : ".7319840581303887",
        "perihelion_argument" : "357.3029139004242",
        "aphelion_distance" : "1.06714432599534",
        "perihelion_time" : "2458136.701548397474",
        "mean_anomaly" : "202.6604588528841",
        "mean_motion" : "1.155196420292931",
        "equinox" : "J2000"
      }
    } ]
  }
}